      2.10          N: GNSS NAV DATA                        RINEX VERSION / TYPE
fic2rin                                 01/24/2024 00:17:52 PGM / RUN BY / DATE
                                                            END OF HEADER
24 24  1 23  2  0  0.0 -.418825540692D-03 -.693489710102D-11  .000000000000D+00
     .540000000000D+02  .120312500000D+02  .528164857329D-08  .246333704353D+01
     .422820448875D-06  .150602514623D-01  .562891364098D-05  .515372224236D+04
     .180000000000D+06  .465661287308D-07  .104091834595D+01 -.257045030594D-06
     .933670548817D+00  .255156250000D+03  .964072442744D+00 -.807140763510D-08
     .286083345091D-09  .100000000000D+01  .229800000000D+04  .000000000000D+00
     .240000000000D+01  .000000000000D+00  .232830643654D-08  .540000000000D+02
     .172800000000D+06  .400000000000D+01
16 24  1 23  2  0  0.0 -.378550495952D-03  .784439180279D-11  .000000000000D+00
     .530000000000D+02  .206875000000D+02  .436553898508D-08 -.104256097181D+01
     .130198895931D-05  .139679718995D-01  .847131013870D-05  .515372048187D+04
     .180000000000D+06  .281259417534D-06  .226958506880D+01  .214204192162D-06
     .962758108865D+00  .213593750000D+03  .819480229635D+00 -.783925510787D-08
    -.467162316328D-09  .100000000000D+01  .229800000000D+04  .000000000000D+00
     .240000000000D+01  .000000000000D+00 -.102445483208D-07  .530000000000D+02
     .172800000000D+06  .400000000000D+01
9  24  1 23  2  0  0.0  .676205381751D-04  .122781784739D-10  .000000000000D+00
     .109000000000D+03 -.474062500000D+02  .438768276460D-08 -.157911572833D+01
    -.250525772572D-05  .285352324136D-02  .105183571577D-04  .515373993301D+04
     .180000000000D+06 -.763684511185D-07  .639037668541D-01  .912696123123D-07
     .958054461511D+00  .175906250000D+03  .200989577892D+01 -.775889461768D-08
     .444661379074D-09  .100000000000D+01  .229800000000D+04  .000000000000D+00
     .240000000000D+01  .000000000000D+00  .139698386192D-08  .109000000000D+03
     .172800000000D+06  .400000000000D+01
30 24  1 23  2  0  0.0 -.442092306912D-03  .477484718431D-11  .000000000000D+00
     .610000000000D+02  .119375000000D+02  .543165482165D-08  .130809801631D+01
     .745058059692D-06  .672092090826D-02  .567920506001D-05  .515369182205D+04
     .180000000000D+06 -.856816768646D-07  .113829952281D+01  .614672899246D-07
     .935081274368D+00  .258437500000D+03 -.254255676685D+01 -.836927718542D-08
     .589310261424D-10  .100000000000D+01  .229800000000D+04  .000000000000D+00
     .240000000000D+01  .000000000000D+00  .372529029846D-08  .610000000000D+02
     .172800000000D+06  .400000000000D+01
21 24  1 23  2  0  0.0  .137509312481D-03 -.125055521494D-11  .000000000000D+00
     .420000000000D+02  .484062500000D+02  .461983529183D-08 -.206687143932D+01
     .287592411041D-05  .252555876505D-01  .149197876453D-05  .515372912025D+04
     .180000000000D+06 -.530853867531D-06 -.209645232460D+01  .221654772758D-06
     .961750282657D+00  .359062500000D+03 -.645789364633D+00 -.824141471657D-08
     .175364447490D-09  .100000000000D+01  .229800000000D+04  .000000000000D+00
     .240000000000D+01  .000000000000D+00 -.102445483208D-07  .420000000000D+02
     .172800000000D+06  .400000000000D+01
19 24  1 23  2  0  0.0  .430311076343D-03  .522959453519D-11  .000000000000D+00
     .280000000000D+02  .131562500000D+03  .419267464173D-08  .533540501589D-01
     .681728124619D-05  .943688605912D-02  .742264091969D-05  .515368671036D+04
     .180000000000D+06  .502914190292D-07 -.294842386384D+01 -.128522515297D-06
     .970326230279D+00  .243937500000D+03  .247319385201D+01 -.801533387083D-08
     .106433004790D-09  .100000000000D+01  .229800000000D+04  .000000000000D+00
     .240000000000D+01  .000000000000D+00 -.153668224812D-07  .280000000000D+02
     .172800000000D+06  .400000000000D+01
26 24  1 23  2  0  0.0  .197743996978D-03 -.363797880709D-11  .000000000000D+00
     .820000000000D+02  .406250000000D+01  .523057501730D-08 -.226712598690D+00
     .311061739922D-06  .878021901008D-02  .779516994953D-05  .515357195473D+04
     .180000000000D+06  .763684511185D-07  .210630933788D+01  .108033418655D-06
     .931696574936D+00  .212812500000D+03  .523065219629D+00 -.836141971526D-08
    -.477877048354D-09  .100000000000D+01  .229800000000D+04  .000000000000D+00
     .340000000000D+01  .000000000000D+00  .698491930962D-08  .820000000000D+02
     .172800000000D+06  .400000000000D+01
15 24  1 23  2  0  0.0  .120014417917D-03  .386535248253D-11  .000000000000D+00
     .600000000000D+02 -.687812500000D+02  .472662545435D-08 -.301490064758D+01
    -.353343784809D-05  .154412155971D-01  .100694596767D-04  .515360071945D+04
     .180000000000D+06  .244006514549D-06 -.606890511883D-01 -.782310962677D-07
     .934741758878D+00  .169031250000D+03  .128649752909D+01 -.769174896365D-08
     .375015620906D-09  .100000000000D+01  .229800000000D+04  .000000000000D+00
     .240000000000D+01  .000000000000D+00 -.102445483208D-07  .600000000000D+02
     .172800000000D+06  .400000000000D+01
20 24  1 23  2  0  0.0  .390341505408D-03 -.147792889038D-11  .000000000000D+00
     .700000000000D+02 -.137906250000D+03  .461733518769D-08  .282346404793D+01
    -.722706317902D-05  .394836522173D-02  .341609120369D-05  .515370828056D+04
     .180000000000D+06 -.409781932831D-07 -.113326714606D+01 -.186264514923D-07
     .951923629314D+00  .308343750000D+03 -.265930833082D+01 -.821712799065D-08
    -.273225666660D-09  .100000000000D+01  .229800000000D+04  .000000000000D+00
     .240000000000D+01  .000000000000D+00 -.838190317154D-08  .700000000000D+02
     .172800000000D+06  .400000000000D+01
25 24  1 23  2  0  0.0  .486187636852D-03  .125055521494D-11  .000000000000D+00
     .108000000000D+03  .959375000000D+01  .476484133191D-08  .586643753461D+00
     .419095158577D-06  .117762851296D-01  .877678394318D-05  .515362012672D+04
     .180000000000D+06 -.214204192162D-06  .216645774136D+01  .502914190292D-07
     .950973765383D+00  .207187500000D+03  .106991138978D+01 -.812069540242D-08
    -.622525930704D-09  .100000000000D+01  .229800000000D+04  .000000000000D+00
     .340000000000D+01  .000000000000D+00  .558793544769D-08  .108000000000D+03
     .172800000000D+06  .400000000000D+01
13 24  1 23  2  0  0.0  .618495978415D-03  .363797880709D-11  .000000000000D+00
     .740000000000D+02 -.324062500000D+02  .403445376548D-08 -.234407748206D+01
    -.161677598953D-05  .777291040868D-02  .992044806480D-05  .515365935326D+04
     .180000000000D+06  .800937414169D-07  .227825795962D+00 -.372529029846D-07
     .971219612407D+00  .193312500000D+03  .944610842696D+00 -.744852454666D-08
     .546094175586D-09  .100000000000D+01  .229800000000D+04  .000000000000D+00
     .240000000000D+01  .000000000000D+00 -.111758708954D-07  .740000000000D+02
     .172800000000D+06  .400000000000D+01
11 24  1 23  2  0  0.0 -.549749936908D-03 -.137561073643D-10  .000000000000D+00
     .240000000000D+02  .216875000000D+02  .462662128878D-08 -.283684702147D+01
     .120326876640D-05  .126936286688D-02 -.234693288803D-06  .515365446281D+04
     .180000000000D+06 -.260770320892D-07 -.195855499224D+01 -.484287738800D-07
     .965943029279D+00  .385437500000D+03 -.246644767258D+01 -.841535053313D-08
     .389301930274D-10  .100000000000D+01  .229800000000D+04  .000000000000D+00
     .240000000000D+01  .000000000000D+00 -.838190317154D-08  .536000000000D+03
     .172800000000D+06  .400000000000D+01
23 24  1 23  2  0  0.0  .140778720379D-03  .761701812735D-11  .000000000000D+00
     .370000000000D+02 -.123281250000D+03  .411517141341D-08  .113018502344D+01
    -.636279582977D-05  .395716796629D-02  .500865280628D-05  .515370725441D+04
     .180000000000D+06  .279396772385D-07 -.987829497967D+00  .372529029846D-07
     .977356351867D+00  .292062500000D+03 -.297593660574D+01 -.795247410961D-08
    -.266796827444D-09  .100000000000D+01  .229800000000D+04  .000000000000D+00
     .240000000000D+01  .000000000000D+00 -.838190317154D-08  .293000000000D+03
     .172800000000D+06  .400000000000D+01
18 24  1 23  2  0  0.0 -.538567081094D-03 -.898126018001D-11  .000000000000D+00
     .234000000000D+03  .335937500000D+02  .448518682603D-08  .220202739341D+01
     .174902379513D-05  .382949144114D-02  .476837158203D-06  .515363036156D+04
     .180000000000D+06 -.502914190292D-07 -.198857782215D+01  .100582838058D-06
     .974313710477D+00  .379000000000D+03 -.301498728159D+01 -.827463038585D-08
     .101432796512D-09  .100000000000D+01  .229800000000D+04  .000000000000D+00
     .240000000000D+01  .000000000000D+00 -.838190317154D-08  .100200000000D+04
     .172800000000D+06  .400000000000D+01
14 24  1 23  2  0  0.0  .305953901261D-03  .101181285572D-10  .000000000000D+00
     .181000000000D+03  .205312500000D+02  .479377110838D-08  .716524078241D+00
     .105425715446D-05  .388686335646D-02  .869669020176D-05  .515368499565D+04
     .180000000000D+06  .279396772385D-07  .220911816611D+01  .316649675369D-07
     .946483133530D+00  .204125000000D+03 -.296729862015D+01 -.799676166865D-08
    -.559666169485D-09  .100000000000D+01  .229800000000D+04  .000000000000D+00
     .240000000000D+01  .000000000000D+00 -.791624188423D-08  .693000000000D+03
     .172800000000D+06  .400000000000D+01
3  24  1 23  1 59 44.0  .144430901855D-03  .253521648119D-10  .000000000000D+00
     .130000000000D+02 -.130562500000D+03  .393802117725D-08  .103782062569D+01
    -.685639679432D-05  .506033119746D-02  .588223338127D-05  .515379726219D+04
     .179984000000D+06 -.726431608200D-07 -.956865997104D+00  .540167093277D-07
     .982545244759D+00  .276718750000D+03  .107389306951D+01 -.790211486909D-08
    -.236081262304D-09  .100000000000D+01  .229800000000D+04  .000000000000D+00
     .240000000000D+01  .000000000000D+00  .186264514923D-08  .130000000000D+02
     .175230000000D+06  .400000000000D+01
